[
   {
      "name": "STARLINK-2279",
      "line1": "1 47991U 21024Q   21092.91668981 -.00804117  00000-0 -32359-2 0  9998",
      "line2": "2 47991  53.0492 157.1126 0004334 280.7493  10.2662 15.87517319  1774",
      "drg": -323.59,
      "inc": 53.0492,
      "ran": 157.1126,
      "ecc": 0.0004334,
      "aop": 280.7493,
      "man": 10.2662,
      "mmo": 15.87517319,
      "sma": 6687.38295
   },
   {
      "name": "STARLINK-2229",
      "line1": "1 47992U 21024R   21092.91668981 -.00861678  00000-0 -34800-2 0  9997",
      "line2": "2 47992  53.0497 157.1135 0003915 288.4759   2.8525 15.87581963  1775",
      "drg": -348.0,
      "inc": 53.0497,
      "ran": 157.1135,
      "ecc": 0.0003915,
      "aop": 288.4759,
      "man": 2.8525,
      "mmo": 15.87581963,
      "sma": 6687.20141
   },
   {
      "name": "STARLINK-2273",
      "line1": "1 47993U 21024S   21092.91668981 -.00886562  00000-0 -35926-2 0  9997",
      "line2": "2 47993  53.0497 157.1125 0001161  52.3244 239.3619 15.87603208  1771",
      "drg": -359.26,
      "inc": 53.0497,
      "ran": 157.1125,
      "ecc": 0.0001161,
      "aop": 52.3244,
      "man": 239.3619,
      "mmo": 15.87603208,
      "sma": 6687.14175
   },
   {
      "name": "STARLINK-2290",
      "line1": "1 47994U 21024T   21092.91668981 -.00886474  00000-0 -35921-2 0  9995",
      "line2": "2 47994  53.0488 157.1122 0001111  57.1676 234.7446 15.87604251  1772",
      "drg": -359.21,
      "inc": 53.0488,
      "ran": 157.1122,
      "ecc": 0.0001111,
      "aop": 57.1676,
      "man": 234.7446,
      "mmo": 15.87604251,
      "sma": 6687.13883
   },
   {
      "name": "STARLINK-2309",
      "line1": "1 47995U 21024U   21092.91668981 -.00886614  00000-0 -35905-2 0  9994",
      "line2": "2 47995  53.0497 157.1111 0001162  53.0601 239.2081 15.87616204  1776",
      "drg": -359.05,
      "inc": 53.0497,
      "ran": 157.1111,
      "ecc": 0.0001162,
      "aop": 53.0601,
      "man": 239.2081,
      "mmo": 15.87616204,
      "sma": 6687.10526
   },
   {
      "name": "STARLINK-2260",
      "line1": "1 47996U 21024V   21092.91668981 -.00886323  00000-0 -35872-2 0  9995",
      "line2": "2 47996  53.0490 157.1106 0001093  60.3611 232.2438 15.87627970  1770",
      "drg": -358.72,
      "inc": 53.049,
      "ran": 157.1106,
      "ecc": 0.0001093,
      "aop": 60.3611,
      "man": 232.2438,
      "mmo": 15.8762797,
      "sma": 6687.07222
   },
   {
      "name": "STARLINK-2266",
      "line1": "1 47997U 21024W   21092.91668981 -.00886652  00000-0 -35868-2 0  9996",
      "line2": "2 47997  53.0497 157.1097 0001136  55.5578 237.4068 15.87638022  1779",
      "drg": -358.68,
      "inc": 53.0497,
      "ran": 157.1097,
      "ecc": 0.0001136,
      "aop": 55.5578,
      "man": 237.4068,
      "mmo": 15.87638022,
      "sma": 6687.044
   },
   {
      "name": "STARLINK-2296",
      "line1": "1 47998U 21024X   21092.91668981 -.00886594  00000-0 -35833-2 0  9994",
      "line2": "2 47998  53.0495 157.1091 0001122  58.2221 235.0649 15.87656239  1771",
      "drg": -358.33,
      "inc": 53.0495,
      "ran": 157.1091,
      "ecc": 0.0001122,
      "aop": 58.2221,
      "man": 235.0649,
      "mmo": 15.87656239,
      "sma": 6686.99284
   },
   {
      "name": "STARLINK-2218",
      "line1": "1 47999U 21024Y   21092.91668981 -.00886628  00000-0 -35828-2 0  9997",
      "line2": "2 47999  53.0496 157.1079 0001113  56.9121 236.7412 15.87659947  1778",
      "drg": -358.28,
      "inc": 53.0496,
      "ran": 157.1079,
      "ecc": 0.0001113,
      "aop": 56.9121,
      "man": 236.7412,
      "mmo": 15.87659947,
      "sma": 6686.98243
   },
   {
      "name": "STARLINK-2270",
      "line1": "1 48000U 21024Z   21092.91668981 -.00886855  00000-0 -35811-2 0  9995",
      "line2": "2 48000  53.0496 157.1078 0001208  48.4223 245.5552 15.87674209  1776",
      "drg": -358.11,
      "inc": 53.0496,
      "ran": 157.1078,
      "ecc": 0.0001208,
      "aop": 48.4223,
      "man": 245.5552,
      "mmo": 15.87674209,
      "sma": 6686.94239
   },
   {
      "name": "STARLINK-2262",
      "line1": "1 48001U 21024AA  21092.91668981 -.00886430  00000-0 -35778-2 0  9997",
      "line2": "2 48001  53.0489 157.1061 0001078  60.6673 233.6755 15.87683272  1774",
      "drg": -357.78,
      "inc": 53.0489,
      "ran": 157.1061,
      "ecc": 0.0001078,
      "aop": 60.6673,
      "man": 233.6755,
      "mmo": 15.87683272,
      "sma": 6686.91694
   },
   {
      "name": "STARLINK-2265",
      "line1": "1 48002U 21024AB  21092.91668981 -.00873351  00000-0 -35191-2 0  9995",
      "line2": "2 48002  53.0495 157.1060 0000728  39.3740 255.2671 15.87689741  1774",
      "drg": -351.91,
      "inc": 53.0495,
      "ran": 157.106,
      "ecc": 7.28e-05,
      "aop": 39.374,
      "man": 255.2671,
      "mmo": 15.87689741,
      "sma": 6686.89878
   },
   {
      "name": "STARLINK-2263",
      "line1": "1 48003U 21024AC  21092.91668981 -.00886678  00000-0 -35744-2 0  9996",
      "line2": "2 48003  53.0496 157.1051 0001125  57.3881 237.6187 15.87708039  1772",
      "drg": -357.44,
      "inc": 53.0496,
      "ran": 157.1051,
      "ecc": 0.0001125,
      "aop": 57.3881,
      "man": 237.6187,
      "mmo": 15.87708039,
      "sma": 6686.8474
   },
   {
      "name": "STARLINK-2261",
      "line1": "1 48004U 21024AD  21092.91668981 -.00886695  00000-0 -35729-2 0  9999",
      "line2": "2 48004  53.0497 157.1050 0001101  58.0290 237.2275 15.87717067  1774",
      "drg": -357.29,
      "inc": 53.0497,
      "ran": 157.105,
      "ecc": 0.0001101,
      "aop": 58.029,
      "man": 237.2275,
      "mmo": 15.87717067,
      "sma": 6686.82205
   },
   {
      "name": "STARLINK-2254",
      "line1": "1 48005U 21024AE  21092.91668981 -.00886644  00000-0 -35707-2 0  9990",
      "line2": "2 48005  53.0498 157.1036 0001104  57.9215 237.7918 15.87728100  1777",
      "drg": -357.07,
      "inc": 53.0498,
      "ran": 157.1036,
      "ecc": 0.0001104,
      "aop": 57.9215,
      "man": 237.7918,
      "mmo": 15.877281,
      "sma": 6686.79107
   },
   {
      "name": "STARLINK-2277",
      "line1": "1 48006U 21024AF  21092.91668981 -.00766322  00000-0 -30558-2 0  9990",
      "line2": "2 48006  53.0492 157.1019 0001056  48.7553 247.2539 15.87650303  1776",
      "drg": -305.58,
      "inc": 53.0492,
      "ran": 157.1019,
      "ecc": 0.0001056,
      "aop": 48.7553,
      "man": 247.2539,
      "mmo": 15.87650303,
      "sma": 6687.00951
   },
   {
      "name": "STARLINK-2259",
      "line1": "1 48007U 21024AG  21092.91668981 -.00886681  00000-0 -35666-2 0  9997",
      "line2": "2 48007  53.0490 157.1019 0001099  59.1481 237.2371 15.87752006  1774",
      "drg": -356.66,
      "inc": 53.049,
      "ran": 157.1019,
      "ecc": 0.0001099,
      "aop": 59.1481,
      "man": 237.2371,
      "mmo": 15.87752006,
      "sma": 6686.72395
   },
   {
      "name": "STARLINK-2271",
      "line1": "1 48008U 21024AH  21092.91668981 -.00728049  00000-0 -28912-2 0  9997",
      "line2": "2 48008  53.0490 157.1002 0001259  54.8405 241.8350 15.87644300  1778",
      "drg": -289.12,
      "inc": 53.049,
      "ran": 157.1002,
      "ecc": 0.0001259,
      "aop": 54.8405,
      "man": 241.835,
      "mmo": 15.876443,
      "sma": 6687.02637
   },
   {
      "name": "STARLINK-2153",
      "line1": "1 48009U 21024AJ  21092.91668981 -.00725675  00000-0 -28790-2 0  9994",
      "line2": "2 48009  53.0491 157.0994 0001234  53.5250 243.5177 15.87658378  1772",
      "drg": -287.9,
      "inc": 53.0491,
      "ran": 157.0994,
      "ecc": 0.0001234,
      "aop": 53.525,
      "man": 243.5177,
      "mmo": 15.87658378,
      "sma": 6686.98684
   },
   {
      "name": "STARLINK-2226",
      "line1": "1 48010U 21024AK  21092.91668981 -.00886848  00000-0 -35614-2 0  9999",
      "line2": "2 48010  53.0495 157.1001 0001115  56.3013 241.0036 15.87785168  1779",
      "drg": -356.14,
      "inc": 53.0495,
      "ran": 157.1001,
      "ecc": 0.0001115,
      "aop": 56.3013,
      "man": 241.0036,
      "mmo": 15.87785168,
      "sma": 6686.63085
   },
   {
      "name": "STARLINK-2272",
      "line1": "1 48011U 21024AL  21092.91668981 -.00783640  00000-0 -31206-2 0  9999",
      "line2": "2 48011  53.0491 157.0977 0001171  52.1672 245.5666 15.87716169  1777",
      "drg": -312.06,
      "inc": 53.0491,
      "ran": 157.0977,
      "ecc": 0.0001171,
      "aop": 52.1672,
      "man": 245.5666,
      "mmo": 15.87716169,
      "sma": 6686.82457
   },
   {
      "name": "STARLINK-2216",
      "line1": "1 48012U 21024AM  21092.91668981 -.00792159  00000-0 -31555-2 0  9992",
      "line2": "2 48012  53.0493 157.0975 0001102  41.3988 256.6467 15.87730002  1776",
      "drg": -315.55,
      "inc": 53.0493,
      "ran": 157.0975,
      "ecc": 0.0001102,
      "aop": 41.3988,
      "man": 256.6467,
      "mmo": 15.87730002,
      "sma": 6686.78573
   },
   {
      "name": "STARLINK-2243",
      "line1": "1 48013U 21024AN  21092.91668981 -.00707606  00000-0 -27974-2 0  9996",
      "line2": "2 48013  53.0484 157.0962 0001253 311.3769 347.0742 15.87688016  1775",
      "drg": -279.74,
      "inc": 53.0484,
      "ran": 157.0962,
      "ecc": 0.0001253,
      "aop": 311.3769,
      "man": 347.0742,
      "mmo": 15.87688016,
      "sma": 6686.90362
   },
   {
      "name": "STARLINK-2283",
      "line1": "1 48014U 21024AP  21092.91668981 -.00780940  00000-0 -31029-2 0  9995",
      "line2": "2 48014  53.0491 157.0959 0001164  51.9161 246.8217 15.87754831  1776",
      "drg": -310.29,
      "inc": 53.0491,
      "ran": 157.0959,
      "ecc": 0.0001164,
      "aop": 51.9161,
      "man": 246.8217,
      "mmo": 15.87754831,
      "sma": 6686.71602
   }
]